{
    "links": {
        "self": "http://www.neowsapp.com/rest/v1/neo/54016736?api_key=iIulBulltgU6a56xZRHN4H3l9WmuAYTsLGpBGhQ2"
    },
    "id": "54016736",
    "neo_reference_id": "54016736",
    "name": "(2020 HS5)",
    "designation": "2020 HS5",
    "nasa_jpl_url": "http://ssd.jpl.nasa.gov/sbdb.cgi?sstr=54016736",
    "absolute_magnitude_h": 20.009,
    "estimated_diameter": {
        "kilometers": {
            "estimated_diameter_min": 0.264700631,
            "estimated_diameter_max": 0.5918886046
        },
        "meters": {
            "estimated_diameter_min": 264.7006310134,
            "estimated_diameter_max": 591.8886046331
        },
        "miles": {
            "estimated_diameter_min": 0.1644772958,
            "estimated_diameter_max": 0.3677824141
        },
        "feet": {
            "estimated_diameter_min": 868.4404182541,
            "estimated_diameter_max": 1941.8918096246
        }
    },
    "is_potentially_hazardous_asteroid": false,
    "close_approach_data": [
        {
            "close_approach_date": "1984-07-09",
            "close_approach_date_full": "1984-Jul-09 14:17",
            "epoch_date_close_approach": 458230620000,
            "relative_velocity": {
                "kilometers_per_second": "6.1197028567",
                "kilometers_per_hour": "22030.9302840338",
                "miles_per_hour": "13689.1633200987"
            },
            "miss_distance": {
                "astronomical": "0.2756321003",
                "lunar": "107.2208870167",
                "kilometers": "41233975.108506361",
                "miles": "25621604.0428593418"
            },
            "orbiting_body": "Earth"
        },
        {
            "close_approach_date": "2009-06-25",
            "close_approach_date_full": "2009-Jun-25 03:54",
            "epoch_date_close_approach": 1245902040000,
            "relative_velocity": {
                "kilometers_per_second": "6.0368441126",
                "kilometers_per_hour": "21732.6388054599",
                "miles_per_hour": "13503.816595537"
            },
            "miss_distance": {
                "astronomical": "0.3683723841",
                "lunar": "143.2968574149",
                "kilometers": "55107724.028181867",
                "miles": "34242351.8721570846"
            },
            "orbiting_body": "Earth"
        },
        {
            "close_approach_date": "2023-07-20",
            "close_approach_date_full": "2023-Jul-20 20:44",
            "epoch_date_close_approach": 1689885840000,
            "relative_velocity": {
                "kilometers_per_second": "6.193998457",
                "kilometers_per_hour": "22298.3944451148",
                "miles_per_hour": "13855.3551484104"
            },
            "miss_distance": {
                "astronomical": "0.3465888287",
                "lunar": "134.8230543643",
                "kilometers": "51848950.539314869",
                "miles": "32217443.9224044322"
            },
            "orbiting_body": "Earth"
        },
        {
            "close_approach_date": "2048-07-06",
            "close_approach_date_full": "2048-Jul-06 18:28",
            "epoch_date_close_approach": 2477672880000,
            "relative_velocity": {
                "kilometers_per_second": "6.065197141",
                "kilometers_per_hour": "21834.7097076984",
                "miles_per_hour": "13567.239484764"
            },
            "miss_distance": {
                "astronomical": "0.2795523608",
                "lunar": "108.7458683512",
                "kilometers": "41820437.729151496",
                "miles": "25986015.0173668048"
            },
            "orbiting_body": "Earth"
        }
    ],
    "orbital_data": {
        "orbit_id": "5",
        "orbit_determination_date": "2020-05-26 08:17:05",
        "first_observation_date": "2020-04-18",
        "last_observation_date": "2020-05-26",
        "data_arc_in_days": 38,
        "observations_used": 27,
        "orbit_uncertainty": "6",
        "minimum_orbit_intersection": ".275484",
        "jupiter_tisserand_invariant": "3.762",
        "epoch_osculation": "2459000.5",
        "eccentricity": ".3490911289434355",
        "semi_major_axis": "1.978475739200561",
        "inclination": "11.55618447784659",
        "ascending_node_longitude": "97.68519618535507",
        "orbital_period": "1016.469895066813",
        "perihelion_distance": "1.287807409815839",
        "perihelion_argument": "194.8464973994449",
        "aphelion_distance": "2.669144068585283",
        "perihelion_time": "2459111.824632683637",
        "mean_anomaly": "320.5724990374899",
        "mean_motion": ".3541669081860384",
        "equinox": "J2000",
        "orbit_class": {
            "orbit_class_type": "AMO",
            "orbit_class_description": "Near-Earth asteroid orbits similar to that of 1221 Amor",
            "orbit_class_range": "1.017 AU < q (perihelion) < 1.3 AU"
        }
    },
    "is_sentry_object": false
}